{
  "type": "FeatureCollection",
  "features": [
    {
      "type": "Feature",
      "properties": {
        "norad_id": 55268,
        "name": "GPS BIII-6  (PRN 28)",
        "group": "gnss",
        "lat": -48.51769845012554,
        "lon": 27.833789066716907,
        "alt_km": 20191.941400900512,
        "timestamp": "2025-12-16T19:34:24.510585+00:00",
        "meta_object_name": "GPS BIII-6  (PRN 28)",
        "meta_object_id": "2023-009A",
        "meta_epoch": "2025-12-13T12:37:03.021024",
        "meta_mean_motion": 2.00555696,
        "meta_eccentricity": 0.00037118,
        "meta_inclination": 55.1051,
        "meta_ra_of_asc_node": 155.8142,
        "meta_arg_of_pericenter": 357.4368,
        "meta_mean_anomaly": 33.2544,
        "meta_ephemeris_type": 0,
        "meta_classification_type": "U",
        "meta_norad_cat_id": 55268,
        "meta_element_set_no": 999,
        "meta_rev_at_epoch": 2152,
        "meta_bstar": 0,
        "meta_mean_motion_dot": 1e-06,
        "meta_mean_motion_ddot": 0,
        "tle_line1": "1 55268U 23009A   25347.52572941  .00000100  00000+0  00000+0 0  9995",
        "tle_line2": "2 55268  55.1051 155.8142 0003711 357.4368  33.2544  2.00555696 21528"
      },
      "geometry": {
        "type": "Point",
        "coordinates": [
          27.833789066716907,
          -48.51769845012554
        ]
      }
    },
    {
      "type": "Feature",
      "properties": {
        "norad_id": 56564,
        "name": "BEIDOU-3 G4 (C62)",
        "group": "gnss",
        "lat": -0.68588195143435,
        "lon": 179.3538359020562,
        "alt_km": 35774.56538009126,
        "timestamp": "2025-12-16T19:34:24.510597+00:00",
        "meta_object_name": "BEIDOU-3 G4 (C62)",
        "meta_object_id": "2023-066A",
        "meta_epoch": "2025-12-15T22:42:35.160192",
        "meta_mean_motion": 1.00271767,
        "meta_eccentricity": 0.00028018,
        "meta_inclination": 0.8078,
        "meta_ra_of_asc_node": 302.302,
        "meta_arg_of_pericenter": 228.5934,
        "meta_mean_anomaly": 54.6581,
        "meta_ephemeris_type": 0,
        "meta_classification_type": "U",
        "meta_norad_cat_id": 56564,
        "meta_element_set_no": 999,
        "meta_rev_at_epoch": 955,
        "meta_bstar": 0,
        "meta_mean_motion_dot": -8.8e-07,
        "meta_mean_motion_ddot": 0,
        "tle_line1": "1 56564U 23066A   25349.94624028 -.00000088  00000+0  00000+0 0  9996",
        "tle_line2": "2 56564   0.8078 302.3020 0002801 228.5934  54.6581  1.00271767  9554"
      },
      "geometry": {
        "type": "Point",
        "coordinates": [
          179.3538359020562,
          -0.68588195143435
        ]
      }
    },
    {
      "type": "Feature",
      "properties": {
        "norad_id": 56759,
        "name": "NVS-01 (IRNSS-1J)",
        "group": "gnss",
        "lat": -2.541693033728843,
        "lon": 148.69455632321004,
        "alt_km": 35802.84166280658,
        "timestamp": "2025-12-16T19:34:24.510633+00:00",
        "meta_object_name": "NVS-01 (IRNSS-1J)",
        "meta_object_id": "2023-076A",
        "meta_epoch": "2025-12-15T20:51:08.332416",
        "meta_mean_motion": 1.00276161,
        "meta_eccentricity": 0.00088385,
        "meta_inclination": 2.6107,
        "meta_ra_of_asc_node": 251.4863,
        "meta_arg_of_pericenter": 15.2175,
        "meta_mean_anomaly": 260.3456,
        "meta_ephemeris_type": 0,
        "meta_classification_type": "U",
        "meta_norad_cat_id": 56759,
        "meta_element_set_no": 999,
        "meta_rev_at_epoch": 927,
        "meta_bstar": 0,
        "meta_mean_motion_dot": -3.1e-06,
        "meta_mean_motion_ddot": 0,
        "tle_line1": "1 56759U 23076A   25349.86884644 -.00000310  00000+0  00000+0 0  9994",
        "tle_line2": "2 56759   2.6107 251.4863 0008838  15.2175 260.3456  1.00276161  9275"
      },
      "geometry": {
        "type": "Point",
        "coordinates": [
          148.69455632321004,
          -2.541693033728843
        ]
      }
    },
    {
      "type": "Feature",
      "properties": {
        "norad_id": 57517,
        "name": "COSMOS 2569 (703K)",
        "group": "gnss",
        "lat": 63.052220719769586,
        "lon": 144.02848832658958,
        "alt_km": 19146.842619742878,
        "timestamp": "2025-12-16T19:34:24.510646+00:00",
        "meta_object_name": "COSMOS 2569 (703K)",
        "meta_object_id": "2023-114A",
        "meta_epoch": "2025-12-15T18:34:28.855776",
        "meta_mean_motion": 2.13104005,
        "meta_eccentricity": 0.00106213,
        "meta_inclination": 65.1958,
        "meta_ra_of_asc_node": 78.811,
        "meta_arg_of_pericenter": 287.0195,
        "meta_mean_anomaly": 72.8787,
        "meta_ephemeris_type": 0,
        "meta_classification_type": "U",
        "meta_norad_cat_id": 57517,
        "meta_element_set_no": 999,
        "meta_rev_at_epoch": 1835,
        "meta_bstar": 0,
        "meta_mean_motion_dot": -5.6e-07,
        "meta_mean_motion_ddot": 0,
        "tle_line1": "1 57517U 23114A   25349.77394509 -.00000056  00000+0  00000+0 0  9993",
        "tle_line2": "2 57517  65.1958  78.8110 0010621 287.0195  72.8787  2.13104005 18350"
      },
      "geometry": {
        "type": "Point",
        "coordinates": [
          144.02848832658958,
          63.052220719769586
        ]
      }
    },
    {
      "type": "Feature",
      "properties": {
        "norad_id": 58654,
        "name": "BEIDOU-3 M28 (C50)",
        "group": "gnss",
        "lat": 42.45496969744485,
        "lon": 107.24276666861266,
        "alt_km": 21528.755241419018,
        "timestamp": "2025-12-16T19:34:24.510657+00:00",
        "meta_object_name": "BEIDOU-3 M28 (C50)",
        "meta_object_id": "2023-207A",
        "meta_epoch": "2025-12-15T15:50:05.112096",
        "meta_mean_motion": 1.8622982,
        "meta_eccentricity": 0.00025263,
        "meta_inclination": 55.587,
        "meta_ra_of_asc_node": 68.5025,
        "meta_arg_of_pericenter": 270.8998,
        "meta_mean_anomaly": 89.0909,
        "meta_ephemeris_type": 0,
        "meta_classification_type": "U",
        "meta_norad_cat_id": 58654,
        "meta_element_set_no": 999,
        "meta_rev_at_epoch": 1342,
        "meta_bstar": 0,
        "meta_mean_motion_dot": -8.4e-07,
        "meta_mean_motion_ddot": 0,
        "tle_line1": "1 58654U 23207A   25349.65978139 -.00000084  00000+0  00000+0 0  9994",
        "tle_line2": "2 58654  55.5870  68.5025 0002526 270.8998  89.0909  1.86229820 13427"
      },
      "geometry": {
        "type": "Point",
        "coordinates": [
          107.24276666861266,
          42.45496969744485
        ]
      }
    },
    {
      "type": "Feature",
      "properties": {
        "norad_id": 58655,
        "name": "BEIDOU-3 M26 (C48)",
        "group": "gnss",
        "lat": -8.684391926716868,
        "lon": -105.53966814399824,
        "alt_km": 21525.012712986234,
        "timestamp": "2025-12-16T19:34:24.510669+00:00",
        "meta_object_name": "BEIDOU-3 M26 (C48)",
        "meta_object_id": "2023-207B",
        "meta_epoch": "2025-12-14T09:12:13.791744",
        "meta_mean_motion": 1.86231292,
        "meta_eccentricity": 0.00038911,
        "meta_inclination": 55.5879,
        "meta_ra_of_asc_node": 68.532,
        "meta_arg_of_pericenter": 256.6064,
        "meta_mean_anomaly": 103.3685,
        "meta_ephemeris_type": 0,
        "meta_classification_type": "U",
        "meta_norad_cat_id": 58655,
        "meta_element_set_no": 999,
        "meta_rev_at_epoch": 1338,
        "meta_bstar": 0,
        "meta_mean_motion_dot": -8.4e-07,
        "meta_mean_motion_ddot": 0,
        "tle_line1": "1 58655U 23207B   25348.38349296 -.00000084  00000+0  00000+0 0  9990",
        "tle_line2": "2 58655  55.5879  68.5320 0003891 256.6064 103.3685  1.86231292 13389"
      },
      "geometry": {
        "type": "Point",
        "coordinates": [
          -105.53966814399824,
          -8.684391926716868
        ]
      }
    },
    {
      "type": "Feature",
      "properties": {
        "norad_id": 59598,
        "name": "GSAT0225 (GALILEO 29)",
        "group": "gnss",
        "lat": -53.69928658738039,
        "lon": -1.5267358244290152,
        "alt_km": 23226.89003201835,
        "timestamp": "2025-12-16T19:34:24.510690+00:00",
        "meta_object_name": "GSAT0225 (GALILEO 29)",
        "meta_object_id": "2024-079A",
        "meta_epoch": "2025-12-13T14:17:14.853120",
        "meta_mean_motion": 1.7047497,
        "meta_eccentricity": 0.00020845,
        "meta_inclination": 55.0023,
        "meta_ra_of_asc_node": 106.2711,
        "meta_arg_of_pericenter": 178.8578,
        "meta_mean_anomaly": 264.3288,
        "meta_ephemeris_type": 0,
        "meta_classification_type": "U",
        "meta_norad_cat_id": 59598,
        "meta_element_set_no": 999,
        "meta_rev_at_epoch": 1015,
        "meta_bstar": 0,
        "meta_mean_motion_dot": -1e-08,
        "meta_mean_motion_ddot": 0,
        "tle_line1": "1 59598U 24079A   25347.59531080 -.00000001  00000+0  00000+0 0  9990",
        "tle_line2": "2 59598  55.0023 106.2711 0002084 178.8578 264.3288  1.70474970 10158"
      },
      "geometry": {
        "type": "Point",
        "coordinates": [
          -1.5267358244290152,
          -53.69928658738039
        ]
      }
    }
  ]
}